EARTHCARE               
1 59908U 24101A   24254.19699667  .00036705  00000+0  50223-3 0  9994
2 59908  96.9883  20.0401 0004596 141.5029 218.6556 15.57323481 16200
